NORAD_CAT_ID,OBJECT_NAME,OBJECT_TYPE,EPOCH,MEAN_MOTION,ECCENTRICITY,INCLINATION,RA_OF_ASC_NODE,ARG_OF_PERICENTER,MEAN_ANOMALY,BSTAR,MEAN_MOTION_DOT,MEAN_MOTION_DDOT,TLE_LINE0,TLE_LINE1,TLE_LINE2,SEMIMAJOR_AXIS,PERIOD,APOGEE,PERIGEE,DECAYED
53976.0,STARLINK-5134,PAYLOAD,2022-10-11 18:00:00,15.80960586,0.0001636,53.2174,63.0452,29.1727,20.1491,-0.0068055999999999,-0.01199692,0.0,0 STARLINK-5134,1 53976U 22125N   22284.75001157 -.01199692  00000-0 -68056-2 0  9992,2 53976  53.2174  63.0452 0001636  29.1727  20.1491 15.80960586  1307,6705.86,91.084,328.82199999999995,326.628,0.0
53976.0,STARLINK-5134,PAYLOAD,2022-10-12 12:00:00,15.79008678,0.0001335,53.2178,59.2948,36.8382,320.8834,-0.0074533,-0.0120029,0.0,0 STARLINK-5134,1 53976U 22125N   22285.50001157 -.01200290  00000-0 -74533-2 0  9990,2 53976  53.2178  59.2948 0001335  36.8382 320.8834 15.79008678  1412,6711.385,91.196,334.146,332.3540000000001,0.0
53976.0,STARLINK-5134,PAYLOAD,2022-10-12 14:00:01,15.78787599,0.0001568,53.2175,58.8797,37.154,74.5092,-0.0074819,-0.0119373999999999,0.0,0 STARLINK-5134,1 53976U 22125N   22285.58334491 -.01193740  00000-0 -74819-2 0  9996,2 53976  53.2175  58.8797 0001568  37.1540  74.5092 15.78787599  1306,6712.012,91.209,334.9290000000001,332.824,0.0
53976.0,STARLINK-5134,PAYLOAD,2022-10-12 22:00:00,15.77922177,0.0001529,53.217,57.2179,40.214,166.5587,-0.0078084999999999,-0.01197306,0.0,0 STARLINK-5134,1 53976U 22125N   22285.91667824 -.01197306  00000-0 -78085-2 0  9993,2 53976  53.2170  57.2179 0001529  40.2140 166.5587 15.77922177  1309,6714.465999999999,91.259,337.357,335.3040000000001,0.0
53976.0,STARLINK-5134,PAYLOAD,2022-10-13 06:00:00,15.77052193,0.0001264999999999,53.2172,55.5558,42.9136,257.9287,-0.0080963,-0.01193956,0.0,0 STARLINK-5134,1 53976U 22125N   22286.25001157 -.01193956  00000-0 -80963-2 0  9997,2 53976  53.2172  55.5558 0001265  42.9136 257.9287 15.77052193  1533,6716.935,91.31,339.649,337.95,0.0
53976.0,STARLINK-5134,PAYLOAD,2022-10-13 14:00:01,15.76186234,0.0001234,53.2174,53.8996,46.8612,347.0037,-0.0084331,-0.01196106,0.0,0 STARLINK-5134,1 53976U 22125N   22286.58334491 -.01196106  00000-0 -84331-2 0  9996,2 53976  53.2174  53.8996 0001234  46.8612 347.0037 15.76186234  1302,6719.395,91.36,342.089,340.431,0.0
53976.0,STARLINK-5134,PAYLOAD,2022-10-13 20:00:01,15.75533301,0.0001190999999999,53.2173,52.6583,44.1548,328.8597,-0.0086482,-0.01192068,0.0,0 STARLINK-5134,1 53976U 22125N   22286.83335648 -.01192068  00000-0 -86482-2 0  9991,2 53976  53.2173  52.6583 0001191  44.1548 328.8597 15.75533301  1624,6721.251,91.398,343.917,342.316,0.0
53976.0,STARLINK-5134,PAYLOAD,2022-10-13 22:00:00,15.7531747,0.0001376999999999,53.2173,52.244,46.5017,79.3452,-0.0087508,-0.01194545,0.0,0 STARLINK-5134,1 53976U 22125N   22286.91667824 -.01194545  00000-0 -87508-2 0  9996,2 53976  53.2173  52.2440 0001377  46.5017  79.3452 15.75317470  1305,6721.865,91.41,344.656,342.8040000000001,0.0
53976.0,STARLINK-5134,PAYLOAD,2022-10-14 14:00:01,15.734837099999998,0.0001385999999999,53.2175,48.9389,61.2682,245.425,-0.0028845,-0.00391906,0.0,0 STARLINK-5134,1 53976U 22125N   22287.58334491 -.00391906  00000-0 -28845-2 0  9999,2 53976  53.2175  48.9389 0001386  61.2682 245.4250 15.73483710  1742,6727.0859999999975,91.517,349.884,348.019,0.0
53976.0,STARLINK-5134,PAYLOAD,2022-10-14 18:00:00,15.73213303,0.0001312,53.2176,48.1144,57.1546,114.1607,-0.00010978,-0.00016006,0.0,0 STARLINK-5134,1 53976U 22125N   22287.75001157 -.00016006  00000-0 -10978-3 0  9992,2 53976  53.2176  48.1144 0001312  57.1546 114.1607 15.73213303  1305,6727.857,91.532,350.605,348.84,0.0
53976.0,STARLINK-5134,PAYLOAD,2022-10-15 14:00:01,15.74509455,0.000121,53.2239,43.9826,77.7874,142.8332,-0.00030093,-0.00045078,0.0,0 STARLINK-5134,1 53976U 22125N   22288.58334491 -.00045078  00000-0 -30093-3 0  9995,2 53976  53.2239  43.9826 0001210  77.7874 142.8332 15.74509455  1900,6724.1640000000025,91.457,346.843,345.216,0.0
53976.0,STARLINK-5134,PAYLOAD,2022-10-15 20:00:01,15.74673994,6.03e-05,53.2239,42.7432,42.5701,156.2374,0.00076875,0.00115924,0.0,0 STARLINK-5134,1 53976U 22125N   22288.83335648  .00115924  00000-0  76875-3 0  9992,2 53976  53.2239  42.7432 0000603  42.5701 156.2374 15.74673994  1943,6723.696,91.447,345.966,345.156,0.0
53976.0,STARLINK-5134,PAYLOAD,2022-10-15 22:00:01,15.74714461,5.97e-05,53.224,42.3294,42.5463,268.9333,0.00042558,0.00063605,0.0,0 STARLINK-5134,1 53976U 22125N   22288.91668981  .00063605  00000-0  42558-3 0  9999,2 53976  53.2240  42.3294 0000597  42.5463 268.9333 15.74714461  1305,6723.581,91.445,345.847,345.0440000000001,0.0
53976.0,STARLINK-5134,PAYLOAD,2022-10-16 04:00:00,15.74469451,0.0001217,53.2241,41.0894,77.6878,211.2712,1.6779e-05,1.856e-05,0.0,0 STARLINK-5134,1 53976U 22125N   22289.16667824  .00001856  00000-0  16779-4 0  9999,2 53976  53.2241  41.0894 0001217  77.6878 211.2712 15.74469451  1990,6724.278,91.459,346.962,345.325,0.0
53976.0,STARLINK-5134,PAYLOAD,2022-10-16 14:00:01,15.74448708,0.0001505,53.2237,39.0257,70.8753,61.1384,0.00033213,0.00048842,0.0,0 STARLINK-5134,1 53976U 22125N   22289.58334491  .00048842  00000-0  33213-3 0  9993,2 53976  53.2237  39.0257 0001505  70.8753  61.1384 15.74448708  1306,6724.337,91.461,347.214,345.19,0.0
53976.0,STARLINK-5134,PAYLOAD,2022-10-16 22:00:00,15.74464026,0.0001283,53.2232,37.3731,65.0634,157.3828,-1.3385e-05,-2.615e-05,0.0,0 STARLINK-5134,1 53976U 22125N   22289.91667824 -.00002615  00000-0 -13385-4 0  9998,2 53976  53.2232  37.3731 0001283  65.0634 157.3828 15.74464026  1308,6724.294,91.46,347.022,345.296,0.0
53976.0,STARLINK-5134,PAYLOAD,2022-10-17 12:00:00,15.74530169,0.0001144,53.2232,34.4824,63.5616,227.1736,-0.00030201,-0.00045277,0.0,0 STARLINK-5134,1 53976U 22125N   22290.50001157 -.00045277  00000-0 -30201-3 0  9992,2 53976  53.2232  34.4824 0001144  63.5616 227.1736 15.74530169  2204,6724.105,91.456,346.74,345.201,0.0
53976.0,STARLINK-5134,PAYLOAD,2022-10-17 14:00:01,15.74506309,0.0001184,53.2227,34.0704,59.9362,343.4327,-1.6994e-05,-3.154e-05,0.0,0 STARLINK-5134,1 53976U 22125N   22290.58334491 -.00003154  00000-0 -16994-4 0  9992,2 53976  53.2227  34.0704 0001184  59.9362 343.4327 15.74506309  1309,6724.1730000000025,91.457,346.835,345.242,0.0
53976.0,STARLINK-5134,PAYLOAD,2022-10-17 22:00:00,15.74551422,0.0001319,53.2238,32.4158,57.9912,75.8752,-0.00099344,-0.00145894,0.0,0 STARLINK-5134,1 53976U 22125N   22290.91667824 -.00145894  00000-0 -99344-3 0  9995,2 53976  53.2238  32.4158 0001319  57.9912  75.8752 15.74551422  1309,6724.045,91.455,346.797,345.023,0.0
53976.0,STARLINK-5134,PAYLOAD,2022-10-18 12:00:00,15.74461452,0.000151,53.2235,29.5249,60.5026,141.6793,-0.00021288,-0.00032058,0.0,0 STARLINK-5134,1 53976U 22125N   22291.50001157 -.00032058  00000-0 -21288-3 0  9991,2 53976  53.2235  29.5249 0001510  60.5026 141.6793 15.74461452  2360,6724.301,91.46,347.181,345.151,0.0
53976.0,STARLINK-5134,PAYLOAD,2022-10-18 14:00:01,15.74428313,0.000154,53.2228,29.1128,58.4695,256.3297,0.00023534,0.00034333,0.0,0 STARLINK-5134,1 53976U 22125N   22291.58334491  .00034333  00000-0  23534-3 0  9991,2 53976  53.2228  29.1128 0001540  58.4695 256.3297 15.74428313  1300,6724.395,91.462,347.296,345.225,0.0
53976.0,STARLINK-5134,PAYLOAD,2022-10-18 20:00:01,15.74547231,0.0001219,53.2171,27.8766,64.9211,227.7401,-0.0011044,-0.00161787,0.0,0 STARLINK-5134,1 53976U 22125N   22291.83334491 -.00161787  00000-0 -11044-2 0  9997,2 53976  53.2171  27.8766 0001219  64.9211 227.7401 15.74547231  2412,6724.057,91.455,346.742,345.102,0.0
53976.0,STARLINK-5134,PAYLOAD,2022-10-18 22:00:00,15.74591153,0.0001277,53.2172,27.4629,65.2492,340.0254,-0.0022486,-0.0032321999999999,0.0,0 STARLINK-5134,1 53976U 22125N   22291.91667824 -.00323220  00000-0 -22486-2 0  9999,2 53976  53.2172  27.4629 0001277  65.2492 340.0254 15.74591153  1300,6723.932,91.452,346.656,344.93800000000016,0.0
53976.0,STARLINK-5134,PAYLOAD,2022-10-19 06:00:00,15.74559971,0.0001357,53.2182,25.8083,54.0218,81.6666,-0.0066319,-0.00889408,0.0,0 STARLINK-5134,1 53976U 22125N   22292.25001157 -.00889408  00000-0 -66319-2 0  9996,2 53976  53.2182  25.8083 0001357  54.0218  81.6666 15.74559971  2485,6724.021,91.454,346.798,344.973,0.0
53976.0,STARLINK-5134,PAYLOAD,2022-10-19 14:00:01,15.7381747,0.0001452,53.2184,24.1585,75.2177,150.6536,-0.0045531999999999,-0.00611334,0.0,0 STARLINK-5134,1 53976U 22125N   22292.58334491 -.00611334  00000-0 -45532-2 0  9997,2 53976  53.2184  24.1585 0001452  75.2177 150.6536 15.73817470  1304,6726.135,91.497,348.977,347.024,0.0
53976.0,STARLINK-5134,PAYLOAD,2022-10-19 22:00:00,15.73283023,0.0001319,53.2174,22.5075,80.3288,234.9637,-0.00091473,-0.00127521,0.0,0 STARLINK-5134,1 53976U 22125N   22292.91667824 -.00127521  00000-0 -91473-3 0  9999,2 53976  53.2174  22.5075 0001319  80.3288 234.9637 15.73283023  2581,6727.658,91.528,350.411,348.636,0.0
53976.0,STARLINK-5134,PAYLOAD,2022-10-20 06:00:00,15.73202976,0.000136,53.2176,20.8568,53.6768,350.5879,2.2296e-05,2.51e-05,0.0,0 STARLINK-5134,1 53976U 22125N   22293.25001157  .00002510  00000-0  22296-4 0  9994,2 53976  53.2176  20.8568 0001360  53.6768 350.5879 15.73202976  2630,6727.887,91.533,350.667,348.837,0.0
53976.0,STARLINK-5134,PAYLOAD,2022-10-20 14:00:01,15.73196007,0.0002166999999999,53.2219,19.207,55.6318,77.4128,0.00044835,0.00062766,0.0,0 STARLINK-5134,1 53976U 22125N   22293.58334491  .00062766  00000-0  44835-3 0  9991,2 53976  53.2219  19.2070 0002167  55.6318  77.4128 15.73196007  2692,6727.906999999997,91.533,351.22900000000016,348.314,0.0
53976.0,STARLINK-5134,PAYLOAD,2022-10-20 22:00:00,15.73267879,0.0002019,53.2206,17.5569,56.7317,165.2553,-3.2439e-05,-5.185e-05,0.0,0 STARLINK-5134,1 53976U 22125N   22293.91667824 -.00005185  00000-0 -32439-4 0  9999,2 53976  53.2206  17.5569 0002019  56.7317 165.2553 15.73267879  1300,6727.7019999999975,91.529,350.925,348.208,0.0
